STARLINK-37758          
1 69219U 26115J   26165.58335648 -.02519454  00000+0 -27533-1 0  9996
2 69219  97.2843 182.9068 0001381  80.1209 300.4667 15.66724347  4273
STARLINK-37201          
1 69220U 26115K   26165.58335648 -.02592845  00000+0 -28485-1 0  9990
2 69220  97.2842 182.9064 0001507  86.4951 289.0634 15.66700588  4270
STARLINK-37728          
1 69221U 26115L   26165.58335648 -.02584684  00000+0 -30425-1 0  9990
2 69221  97.2841 182.9035 0001146  80.0141 291.3011 15.64981786  4272
STARLINK-37760          
1 69222U 26115M   26165.58335648 -.02612928  00000+0 -26891-1 0  9996
2 69222  97.2845 182.9104 0001326  89.6321 298.3262 15.68328002  4274
STARLINK-37759          
1 69223U 26115N   26165.58335648 -.02219967  00000+0 -36066-1 0  9998
2 69223  97.2844 182.8472 0001988 105.4594 127.0349 15.56056204  4277
STARLINK-37725          
1 69224U 26115P   26165.58335648 -.02414704  00000+0 -39770-1 0  9990
2 69224  97.2841 182.8539 0002044 100.0390 146.8907 15.56000723  4272
STARLINK-37770          
1 69225U 26115Q   26165.58335648 -.02608431  00000+0 -25757-1 0  9993
2 69225  97.2840 182.9178 0001341  80.1227 328.0996 15.69321034  4275
STARLINK-37736          
1 69226U 26115R   26165.58335648 -.02451004  00000+0 -26257-1 0  9992
2 69226  97.2841 182.9124 0001072 101.5537 290.0615 15.67118154  4272
STARLINK-37737          
1 69227U 26115S   26165.58335648 -.02621428  00000+0 -25288-1 0  9995
2 69227  97.2838 182.9264 0001684  85.9010 341.4629 15.69895257  4290
STARLINK-37618          
1 69228U 26115T   26165.58335648 -.02453542  00000+0 -43704-1 0  9999
2 69228  97.2842 182.8491 0002109  92.4480 144.2354 15.53943039  4271
STARLINK-37679          
1 69229U 26115U   26165.58335648 -.02465873  00000+0 -42733-1 0  9991
2 69229  97.2846 182.8539 0001999  98.0175 150.5165 15.54712565  4277
STARLINK-37746          
1 69230U 26115V   26165.58335648 -.02160785  00000+0 -39600-1 0  9996
2 69230  97.2844 182.8383 0001685  91.9185 116.8735 15.52681733  4277
STARLINK-37557          
1 69231U 26115W   26165.58335648  .00018692  00000+0  34446-3 0  9997
2 69231  97.2841 182.7784 0001724 108.0813 325.9593 15.49194551  4279
STARLINK-37745          
1 69232U 26115X   26165.58335648 -.02553779  00000+0 -23339-1 0  9999
2 69232  97.2837 182.9450 0001519  81.8223  28.6250 15.71089457  4272
STARLINK-37739          
1 69233U 26115Y   26165.58335648 -.02629564  00000+0 -46965-1 0  9996
2 69233  97.2841 182.8310 0001796  94.5404  98.9876 15.53510702  4277
STARLINK-37755          
1 69234U 26115Z   26165.59073418  .00109472  00000+0  72503-3 0  9998
2 69234  97.2830 182.8898 0001451  86.3103 273.8328 15.75202909  4277
TJS-24                  
1 69235U 26116A   26165.76656706  .00000000  00000+0  00000+0 0  9992
2 69235   0.0120   6.5577 0000387  60.7435 201.9967  1.00267314   203
STARLINK-37665          
1 69238U 26117A   26165.59207784  .00094116  00000+0  45109-3 0  9999
2 69238  53.1588 256.6503 0001040  72.0923 288.0213 15.81999078  2569
STARLINK-37558          
1 69239U 26117B   26165.59112608  .00165713  00000+0  78423-3 0  9997
2 69239  53.1582 256.6431 0000783  71.7024 288.4085 15.82024158  2565
STARLINK-37680          
1 69240U 26117C   26165.58968740  .00125703  00000+0  59882-3 0  9997
2 69240  53.1588 256.6333 0001449  69.4315 290.6864 15.82011195  2568
STARLINK-37742          
1 69241U 26117D   26165.58790333  .00144476  00000+0  68603-3 0  9998
2 69241  53.1590 256.6217 0001610  64.5614 295.5576 15.82017844  2562
STARLINK-37718          
1 69242U 26117E   26165.58656918  .02859549  00000+0  11215-1 0  9990
2 69242  53.1591 256.6118 0005600 329.8424  30.2277 15.83228256  2567
STARLINK-37735          
1 69243U 26117F   26165.39703455  .00189863  00000+0  89496-3 0  9990
2 69243  53.1589 257.5626 0001035  93.2803 266.8339 15.82037320  2532
STARLINK-37757          
1 69244U 26117G   26165.58416642  .00105699  00000+0  50543-3 0  9997
2 69244  53.1590 256.5966 0000985  79.5038 280.6096 15.82002953  2562
STARLINK-37767          
1 69245U 26117H   26165.57990246  .00072240  00000+0  34804-3 0  9991
2 69245  53.1587 256.5663 0001196  65.8392 294.2756 15.81990854  2568
STARLINK-35759          
1 69246U 26117J   26165.57921789  .00083531  00000+0  40130-3 0  9992
2 69246  53.1589 256.5619 0001236  51.4128 308.7006 15.81994993  2562
STARLINK-37238          
1 69247U 26117K   26165.57477772  .00122411  00000+0  58360-3 0  9996
2 69247  53.1590 256.5303 0001502  60.5535 299.5638 15.82005429  2560
STARLINK-37412          
1 69248U 26117L   26165.57141016  .00058787  00000+0  28457-3 0  9994
2 69248  53.1591 256.5076 0001457  50.4234 309.6918 15.81970186  2566
STARLINK-37398          
1 69249U 26117M   26165.57387812  .00169702  00000+0  84502-3 0  9994
2 69249  53.1596 256.5242 0001315  83.9071 276.2102 15.80912046  2564
