OBJECT_NAME,OBJECT_ID,EPOCH,MEAN_MOTION,ECCENTRICITY,INCLINATION,RA_OF_ASC_NODE,ARG_OF_PERICENTER,MEAN_ANOMALY,EPHEMERIS_TYPE,CLASSIFICATION_TYPE,NORAD_CAT_ID,ELEMENT_SET_NO,REV_AT_EPOCH,BSTAR,MEAN_MOTION_DOT,MEAN_MOTION_DDOT
STARLINK-37758,2026-115J,2026-06-14T14:00:01.999872,15.66724347,.00013811,97.2843,182.9068,80.1209,300.4667,0,U,69219,999,427,-.27532975E-1,-.2519454E-1,0
STARLINK-37201,2026-115K,2026-06-14T14:00:01.999872,15.66700588,.00015077,97.2842,182.9064,86.4951,289.0634,0,U,69220,999,427,-.28485168E-1,-.2592845E-1,0
STARLINK-37728,2026-115L,2026-06-14T14:00:01.999872,15.64981786,.00011468,97.2841,182.9035,80.0141,291.3011,0,U,69221,999,427,-.30424672E-1,-.2584684E-1,0
STARLINK-37760,2026-115M,2026-06-14T14:00:01.999872,15.68328002,.0001326,97.2845,182.9104,89.6321,298.3262,0,U,69222,999,427,-.26891114E-1,-.2612928E-1,0
STARLINK-37759,2026-115N,2026-06-14T14:00:01.999872,15.56056204,.0001988,97.2844,182.8472,105.4594,127.0349,0,U,69223,999,427,-.36065964E-1,-.2219967E-1,0
STARLINK-37725,2026-115P,2026-06-14T14:00:01.999872,15.56000723,.00020441,97.2841,182.8539,100.0390,146.8907,0,U,69224,999,427,-.39770443E-1,-.2414704E-1,0
STARLINK-37770,2026-115Q,2026-06-14T14:00:01.999872,15.69321034,.00013419,97.2840,182.9178,80.1227,328.0996,0,U,69225,999,427,-.25756624E-1,-.2608431E-1,0
STARLINK-37736,2026-115R,2026-06-14T14:00:01.999872,15.67118154,.00010722,97.2841,182.9124,101.5537,290.0615,0,U,69226,999,427,-.26256969E-1,-.2451004E-1,0
STARLINK-37737,2026-115S,2026-06-14T14:00:01.999872,15.69895257,.00016842,97.2838,182.9264,85.9010,341.4629,0,U,69227,999,429,-.25287789E-1,-.2621428E-1,0
STARLINK-37618,2026-115T,2026-06-14T14:00:01.999872,15.53943039,.00021092,97.2842,182.8491,92.4480,144.2354,0,U,69228,999,427,-.43703849E-1,-.2453542E-1,0
STARLINK-37679,2026-115U,2026-06-14T14:00:01.999872,15.54712565,.00019994,97.2846,182.8539,98.0175,150.5165,0,U,69229,999,427,-.42733019E-1,-.2465873E-1,0
STARLINK-37746,2026-115V,2026-06-14T14:00:01.999872,15.52681733,.00016852,97.2844,182.8383,91.9185,116.8735,0,U,69230,999,427,-.39599944E-1,-.2160785E-1,0
STARLINK-37557,2026-115W,2026-06-14T14:00:01.999872,15.49194551,.00017244,97.2841,182.7784,108.0813,325.9593,0,U,69231,999,427,.34446178E-3,.18692E-3,0
STARLINK-37745,2026-115X,2026-06-14T14:00:01.999872,15.71089457,.00015198,97.2837,182.9450,81.8223,28.6250,0,U,69232,999,427,-.23338926E-1,-.2553779E-1,0
STARLINK-37739,2026-115Y,2026-06-14T14:00:01.999872,15.53510702,.00017965,97.2841,182.8310,94.5404,98.9876,0,U,69233,999,427,-.46965232E-1,-.2629564E-1,0
STARLINK-37755,2026-115Z,2026-06-14T14:10:39.433152,15.75202909,.00014512,97.2830,182.8898,86.3103,273.8328,0,U,69234,999,427,.72503479E-3,.109472E-2,0
TJS-24,2026-116A,2026-06-14T18:23:51.393984,1.00267314,.0000387,0.0120,6.5577,60.7435,201.9967,0,U,69235,999,20,0,0,0
STARLINK-37665,2026-117A,2026-06-14T14:12:35.525376,15.81999078,.00010402,53.1588,256.6503,72.0923,288.0213,0,U,69238,999,256,.45109267E-3,.94116E-3,0
STARLINK-37558,2026-117B,2026-06-14T14:11:13.293312,15.82024158,.00007839,53.1582,256.6431,71.7024,288.4085,0,U,69239,999,256,.78422641E-3,.165713E-2,0
STARLINK-37680,2026-117C,2026-06-14T14:09:08.991360,15.82011195,.00014496,53.1588,256.6333,69.4315,290.6864,0,U,69240,999,256,.59881623E-3,.125703E-2,0
STARLINK-37742,2026-117D,2026-06-14T14:06:34.847712,15.82017844,.00016101,53.1590,256.6217,64.5614,295.5576,0,U,69241,999,256,.68602882E-3,.144476E-2,0
STARLINK-37718,2026-117E,2026-06-14T14:04:39.577152,15.83228256,.00056007,53.1591,256.6118,329.8424,30.2277,0,U,69242,999,256,.11214922E-1,.2859549E-1,0
STARLINK-37735,2026-117F,2026-06-14T09:31:43.785120,15.82037320,.00010355,53.1589,257.5626,93.2803,266.8339,0,U,69243,999,253,.89496379E-3,.189863E-2,0
STARLINK-37757,2026-117G,2026-06-14T14:01:11.978688,15.82002953,.00009858,53.1590,256.5966,79.5038,280.6096,0,U,69244,999,256,.50542512E-3,.105699E-2,0
STARLINK-37767,2026-117H,2026-06-14T13:55:03.572544,15.81990854,.0001196,53.1587,256.5663,65.8392,294.2756,0,U,69245,999,256,.3480391E-3,.7224E-3,0
STARLINK-35759,2026-117J,2026-06-14T13:54:04.425696,15.81994993,.00012368,53.1589,256.5619,51.4128,308.7006,0,U,69246,999,256,.40130385E-3,.83531E-3,0
STARLINK-37238,2026-117K,2026-06-14T13:47:40.795008,15.82005429,.00015021,53.1590,256.5303,60.5535,299.5638,0,U,69247,999,256,.58359766E-3,.122411E-2,0
STARLINK-37412,2026-117L,2026-06-14T13:42:49.837824,15.81970186,.00014576,53.1591,256.5076,50.4234,309.6918,0,U,69248,999,256,.28457038E-3,.58787E-3,0
STARLINK-37398,2026-117M,2026-06-14T13:46:23.069568,15.80912046,.00013154,53.1596,256.5242,83.9071,276.2102,0,U,69249,999,256,.8450184E-3,.169702E-2,0
